OBJECT_NAME,OBJECT_ID,EPOCH,MEAN_MOTION,ECCENTRICITY,INCLINATION,RA_OF_ASC_NODE,ARG_OF_PERICENTER,MEAN_ANOMALY,EPHEMERIS_TYPE,CLASSIFICATION_TYPE,NORAD_CAT_ID,ELEMENT_SET_NO,REV_AT_EPOCH,BSTAR,MEAN_MOTION_DOT,MEAN_MOTION_DDOT
LEMUR-1,2014-033AL,2026-06-08T09:37:23.869344,14.85211366,.0049738,97.7869,309.4026,106.6533,254.0151,0,U,40044,999,64416,.25774E-3,.2204E-4,0
LEMUR-2-GREENBERG,2017-042N,2026-06-08T11:03:29.015136,15.31058959,.0009369,97.3822,340.1280,44.0124,316.1861,0,U,42837,999,48705,.49735E-3,.14878E-3,0
LEMUR-2-ANDIS,2017-042P,2026-06-08T07:32:25.723104,15.34491295,.0008903,97.3686,340.1363,43.6827,316.5119,0,U,42838,999,48709,.55602E-3,.18543E-3,0
LEMUR-2-MONSON,2017-042Q,2026-06-08T07:40:22.607040,15.27777072,.0007026,97.4083,339.9733,36.5128,323.6589,0,U,42839,999,48681,.47962E-3,.12957E-3,0
LEMUR-2-FURIAUS,2017-042R,2026-06-08T10:45:37.821024,15.29962356,.0008524,97.3774,338.0911,95.9048,264.3165,0,U,42840,999,48687,.54249E-3,.15692E-3,0
LEMUR-2-PETERG,2017-042S,2026-06-08T11:43:31.601280,15.33546022,.0003948,97.3995,344.5080,29.2168,330.9294,0,U,42841,999,48710,.60182E-3,.19468E-3,0
LEMUR-2-DEMBITZ,2017-042T,2026-06-08T11:14:41.824032,15.30030271,.0007458,97.3828,341.1277,56.9439,303.2517,0,U,42842,999,48701,.4632E-3,.13408E-3,0
LEMUR-2-ZACHARY,2017-042W,2026-06-08T00:31:40.218528,15.49476173,.0003536,97.3614,350.4691,65.1620,294.9998,0,U,42845,999,48778,.83981904E-3,.46326E-3,0
LEMUR-2-AMANDA-SVANTE,2021-034B,2026-06-08T11:40:19.843392,15.33774210,.0001286,97.5757,237.5463,243.0902,117.0209,0,U,48269,999,27972,.801E-3,.26141E-3,0
LEMUR-2-SPECIAL-K,2021-034F,2026-06-08T12:11:23.875872,15.62059401,.0003226,97.5648,245.7541,232.4890,127.6075,0,U,48273,999,28033,.15584E-2,.138199E-2,0
LEMUR-2-EMBRIONOVIS,2023-084AQ,2026-06-08T08:24:13.919904,15.37328141,.0008353,97.6281,303.2130,354.5892,5.5261,0,U,56970,999,16632,.32216E-3,.11715E-3,0
LEMUR-2-DEVERILL-M-T,2023-100F,2026-06-08T01:41:39.382080,15.39306750,.00071844,99.4478,195.1998,78.2426,281.9619,0,U,57391,999,15984,.77514775E-3,.30234E-3,0
LEMUR-2-BASS,2023-174D,2026-06-08T04:41:44.610144,15.42795954,.0007046,97.3845,243.7848,191.7508,168.3577,0,U,58259,999,14397,.34785E-3,.15161E-3,0
LEMUR-2-JK0903EM1407,2023-174CJ,2026-06-08T05:49:57.667584,15.51220603,.0005915,97.3909,249.4665,144.6569,215.5076,0,U,58336,999,14434,.38512E-3,.22483E-3,0
LEMUR-2-MJR092620,2023-174CN,2026-06-08T11:28:51.972384,15.44553417,.000704,97.3967,249.3496,143.3163,216.8568,0,U,58340,999,14430,.37173E-3,.17203E-3,0
LEMUR-2-NIMBUS2000,2024-022A,2026-06-08T12:01:27.614784,15.39719144,.0009998,97.4121,9.3952,142.6637,217.5305,0,U,58899,999,13093,.42384E-3,.16715E-3,0
LEMUR-2-VALHALLA,2024-022B,2026-06-08T11:53:26.594880,15.39409025,.001054,97.4119,9.3849,138.9662,221.2378,0,U,58900,999,13093,.39266E-3,.15322E-3,0
LEMUR-2-OBA-NI-JESU,2024-022D,2026-06-08T03:17:09.881952,16.09129280,.00045442,97.3720,23.6731,198.6577,161.4540,0,U,58902,999,13187,.12739733E-2,.1105389E-1,.73751929E-3
LEMUR-2-CAEL,2024-022E,2026-06-08T09:11:02.343264,15.40685544,.0009136,97.4104,10.1910,123.3980,236.8142,0,U,58903,999,13098,.38216E-3,.15543E-3,0
LEMUR-2-JOHNNYTRUONG,2024-043BA,2026-06-08T08:42:43.728768,15.59808527,.0004531,97.5374,310.5249,204.0195,156.0851,0,U,59146,999,12666,.40388E-3,.32364E-3,0
LEMUR-2-TOMATOKECHUP,2024-149D,2026-06-08T04:21:58.286304,15.35843091,.0000553,97.3794,241.2073,202.0259,158.0961,0,U,60471,999,10078,.27958E-3,.9672E-4,0
LEMUR-2-STELLA,2024-149BT,2026-06-08T11:26:40.672032,15.11620627,.0001937,97.6731,241.8953,100.0154,260.1294,0,U,60533,999,9918,.55497E-3,.9369E-4,0
LEMUR-2-MARHISYAM,2024-149BW,2026-06-08T04:32:23.887968,15.11073553,.0003013,97.6873,242.0463,135.4606,224.6866,0,U,60536,999,9912,.57494E-3,.9562E-4,0
LEMUR-2-AHMED-ASRAR,2024-149DN,2026-06-08T03:58:39.650016,15.12509708,.0002654,97.6999,244.0809,64.5121,295.6383,0,U,60576,999,9920,.58037E-3,.10047E-3,0
LEMUR-2-LLOYD,2024-149DP,2026-06-08T11:44:16.425600,15.09071759,.0004491,97.6745,240.6147,160.5650,199.5751,0,U,60577,999,9908,.5597E-3,.8808E-4,0
LEMUR-2-SQUIRRELCOMM,2024-149DQ,2026-06-08T11:47:38.814144,15.07055616,.0006944,97.6714,240.4311,85.7681,274.4340,0,U,60578,999,9909,.37885E-3,.5622E-4,0
LEMUR-2-SIERRINI,2024-149DR,2026-06-08T05:03:33.346368,15.10757609,.0005079,97.6837,241.7651,190.6952,169.4170,0,U,60579,999,9910,.52974E-3,.8729E-4,0
LEMUR-2-WILSON,2025-009CP,2026-06-08T11:04:53.434848,14.95129665,.0004588,97.7026,238.0799,75.7823,284.3907,0,U,62694,999,7605,.16719E-3,.1777E-4,0
LEMUR-2-STAR-FOX,2025-009CR,2026-06-08T12:01:59.764224,15.02373903,.0002933,97.6943,241.1734,135.0972,225.0490,0,U,62696,999,7625,.59842E-3,.7864E-4,0
LEMUR-2-ARIANNA,2025-009CU,2026-06-08T03:59:53.858976,15.02348675,.0003208,97.6881,240.6226,143.4513,216.6931,0,U,62699,999,7620,.56078E-3,.736E-4,0
